TITAN 4B CENTAUR R/B    
1 27938U 03041B   26062.65564495  .00000061  00000+0  00000+0 0  9992
2 27938  15.4503  38.4632 0030730 112.5965 247.7563  1.00850357 23881
ARIANE 5 R/B            
1 27946U 03043B   26062.27528332 -.00000088  00000+0  16063-2 0  9990
2 27946   8.0919   8.4213 7167883  25.0050 356.8114  2.23559297183247
ARIANE 5 DEB [SPELTRA]  
1 27950U 03043D   26062.75493227  .00000019  00000+0  32611-2 0  9992
2 27950   7.6628   7.1441 7142342  37.4837 352.6347  2.24983308184356
INSAT-3E                
1 27951U 03043E   26062.66001745 -.00000213  00000+0  00000+0 0  9994
2 27951   9.4677  55.1176 0016742 250.5119 168.0334  1.00810240 52746
ARIANE 5 DEB [SYLDA]    
1 27952U 03043F   26062.77596735  .00000269  00000+0  64543-2 0  9990
2 27952   7.7870 345.3887 7134139  81.6513 346.6474  2.26345348185078
BLOCK DM-SL R/B         
1 27953U 03044B   26062.43361189 -.00000067  00000+0  00000+0 0  9990
2 27953   1.0164 328.6445 6590929 279.4655  16.9714  2.14423250175565
GALAXY 13 (HORIZONS-1)  
1 27954U 03044A   26062.69939465  .00000119  00000+0  00000+0 0  9994
2 27954   1.1450  85.3119 0002176 259.7238 278.1866  1.00272251 45512
YAMAL 202               
1 28089U 03053A   26062.83274980 -.00000091  00000+0  00000+0 0  9994
2 28089   6.0764  72.2240 0005629 240.4243 312.2142  1.00272155 81647
YAMAL 201               
1 28094U 03053B   26062.64375806 -.00000015  00000+0  00000+0 0  9994
2 28094   9.3713  56.6177 0001592 222.3453 178.9789  1.00304206 83824
UFO 11 (USA 174)        
1 28117U 03057A   26062.66009422 -.00000113  00000+0  00000+0 0  9993
2 28117   8.8435  34.3299 0003510 290.9209 149.2261  1.00272321 81393
SL-12 R/B(2)            
1 28119U 03053E   26062.48939332 -.00000041  00000+0  00000+0 0  9993
2 28119  13.5922  14.1331 0220111 300.7347 255.2911  1.00035001 83667
FREGAT R/B              
1 28133U 03059B   26061.98667795  .00000126  00000+0  00000+0 0  9993
2 28133  23.6189 276.7447 5922293 342.5914   3.6991  2.01457255163295
BLOCK DM-SL R/B         
1 28138U 04001B   26062.26319427 -.00000075  00000+0  10134-2 0  9990
2 28138   0.8695  21.5262 7147129 295.1975   5.5579  2.24742354181834
SL-12 R/B(2)            
1 28139U 03060D   26062.62298007  .00000070  00000+0  00000+0 0  9997
2 28139  13.4726  14.5193 0018748 235.2397 188.0473  1.00254183 80979
USA 149 DEB             
1 28156U 00024E   26059.33610972 -.00000264  00000+0  00000+0 0  9992
2 28156  13.6374  12.2767 0185510 321.8952  36.8195  0.99755381 23579
USA 176 (DSP 22)        
1 28158U 04004A   26062.41433668 -.00000169  00000+0  00000+0 0  9998
2 28158  11.9192  26.8414 0002675 274.6937 272.3744  1.00272643 31875
IUS R/B(2)              
1 28161U 04004D   26062.15394831 -.00000134  00000+0  00000+0 0  9993
2 28161  12.0308  27.0437 0004266  11.6238 348.4231  0.99830009 24331
ABS-4 (MOBISAT-1)       
1 28184U 04007A   26062.72088014  .00000028  00000+0  00000+0 0  9998
2 28184   5.7744  73.2910 0005364 272.5165 136.1521  1.00271742 51289
EUTELSAT 139 WEST A     
1 28187U 04008A   26062.79282183 -.00000198  00000+0  00000+0 0  9991
2 28187   5.5616  73.2730 0001093  39.9060 295.1791  1.00833401 80296
RADUGA-1 7              
1 28194U 04010A   26062.52440594  .00000038  00000+0  00000+0 0  9997
2 28194  13.5549  21.6006 0005294 244.9126 142.9355  1.00170933 80366
SUPERBIRD-A2            
1 28218U 04011A   26062.60531004 -.00000035  00000+0  00000+0 0  9999
2 28218  13.3445  18.3827 0027710  34.6217 159.5342  0.99464014 79396
SL-12 R/B(2)            
1 28240U 04015D   26062.62087422  .00000038  00000+0  00000+0 0  9992
2 28240  13.2297  15.1555 0017648 325.4258 218.0968  1.00706767 80342
AMC-11                  
1 28252U 04017A   26062.63578098 -.00000064  00000+0  00000+0 0  9992
2 28252   0.0394  79.1201 0003207 268.3588 291.6831  1.00271978 79808
SL-12 R/B(2)            
1 28256U 04010F   26062.78753514 -.00000292  00000+0  00000+0 0  9996
2 28256  13.5980  21.8052 0026695   6.6021 351.7821  1.00108481 79604
COSMOS 1247 DEB         
1 28270U 81016L   26057.33852536 -.00000963  00000+0  00000+0 0  9997
2 28270  68.9711   6.5795 6263199 344.2585   2.7037  2.02481024183860
INTELSAT 10-02          
1 28358U 04022A   26062.65762111 -.00000025  00000+0  00000+0 0  9995
2 28358   0.0151 123.2246 0001059 255.4458  18.4711  1.00272396 79494
BREEZE-M R/B            
1 28360U 04022C   26062.37806010  .00000432  00000+0  00000+0 0  9995
2 28360  23.5638 106.6274 5996493 306.0050  12.1169  2.01476101159224
ANIK F2                 
1 28378U 04027A   26062.63578098 -.00000063  00000+0  00000+0 0  9991
2 28378   3.0121  80.8648 0002982 295.5755 262.7153  1.00272256 40207
ARIANE 5 R/B            
1 28379U 04027B   26062.55032031 -.00000104  00000+0 -38641-3 0  9998
2 28379   7.2795 330.3954 7286679  31.6626 159.1807  2.07974824164338
AMC-15                  
1 28446U 04041A   26062.63699433 -.00000103  00000+0  00000+0 0  9995
2 28446   0.0565 294.9239 0002426  55.6647 295.0748  1.00272742 78248
BREEZE-M R/B            
1 28447U 04041B   26062.59686745 -.00000150  00000+0  00000+0 0  9995
2 28447  16.6282 243.7604 5168918  92.7739  27.7142  1.86976880146044
SL-12 R/B(2)            
1 28466U 04043D   26062.11972676 -.00000128  00000+0  00000+0 0  9992
2 28466  13.1139  17.2402 0007020 167.6668 182.9735  1.00162922 78048
BREEZE-M DEB [TANK]     
1 28477U 04041C   26062.38026094  .00000072  00000+0  00000+0 0  9992
2 28477  47.4035 141.2430 7021491  90.8644 342.9099  2.23819065174669
DELTA 4 DEMO SPACECRAFT 
1 28500U 04050A   26062.36364280 -.00000138  00000+0  00000+0 0  9993
2 28500  14.1291 300.9737 2783675  18.0881 156.0649  1.41309913109392
GOES 7 AKM              
1 28520U 87022F   26062.47444148 -.00000390  00000+0  00000+0 0  9999
2 28520  10.4130 319.4816 1054474  87.8744  66.7816  0.98770426 44930
NSS-10                  
1 28526U 05003A   26062.79308183 -.00000262  00000+0  00000+0 0  9995
2 28526   6.1861  71.7281 0003264 275.6438  62.2295  1.00271376 52092
DELTA 4 R/B             
1 28546U 04050B   26062.70454661 -.00000139  00000+0  00000+0 0  9995
2 28546  15.9737 321.0908 2592102 337.7332 169.5177  1.37843132106646
ARIANE 1 DEB            
1 28556U 79104V   26059.36819597  .00000146  00000+0  93820-2 0  9991
2 28556  16.0585 281.1344 7327718   0.7274 246.2519  1.95727441 93226
ARIANE 1 DEB            
1 28557U 79104W   26054.36139245 -.00000067  00000+0 -17631-2 0  9992
2 28557  19.8192  34.9291 7391847 172.1488 357.5463  1.97528543 29410
ARIANE 2 DEB            
1 28563U 88098L   26062.55882056  .00000353  00000+0  29699-1 0  9998
2 28563   3.1981 132.5007 7222562 273.9908 167.1306  2.07206753173030
BLOCK DM-SL R/B         
1 28627U 05008B   26062.53550396 -.00000149  00000+0  00000+0 0  9993
2 28627   0.5593  34.5550 6545631 186.5968  64.4652  2.13875912164178
INMARSAT 4-F1           
1 28628U 05009A   26062.76439501  .00000022  00000+0  00000+0 0  9993
2 28628   5.0264  42.7333 0002722 324.1623 247.9124  1.00272317 76613
SL-12 R/B(2)            
1 28634U 05010F   26062.59498112  .00000000  00000+0  00000+0 0  9992
2 28634  13.0130  19.1876 0023310 266.4579 153.5088  1.00212896 76645
BREEZE-M R/B            
1 28656U 04008C   26062.56246523 -.00000063  00000+0  00000+0 0  9996
2 28656  13.1428 293.9463 6095718 352.2656   1.6474  1.97326437152179
DIRECTV 8               
1 28659U 05019A   26062.63422098 -.00000013  00000+0  00000+0 0  9998
2 28659   0.0154 126.5303 0003274 227.9483 276.1675  1.00272377 76010
BREEZE-M R/B            
1 28660U 05019B   26061.71590951 -.00000127  00000+0  00000+0 0  9998
2 28660   9.5521 127.5372 3296792  25.3925 349.3717  1.54369516116908
GALAXY 28 (G-28)        
1 28702U 05022A   26062.36716138 -.00000212  00000+0  00000+0 0  9993
2 28702   3.0270  80.2693 0003407 283.2742 262.6671  1.00284078 50918
SL-12 R/B(2)            
1 28704U 05023H   26062.58603406  .00000030  00000+0  00000+0 0  9990
2 28704  12.7938  19.6331 0012893 324.3071  25.6266  1.00804475 76132
THAICOM 4               
1 28786U 05028A   26062.75278161 -.00000376  00000+0  00000+0 0  9994
2 28786   0.0403 272.1589 0002011  85.9555 193.8913  1.00270605 51196
ARIANE 5 R/B            
1 28787U 05028B   26062.55218219 -.00000093  00000+0  98816-3 0  9993
2 28787   6.8663 264.3020 7165501  70.0957 349.8075  2.26684164170242
ANIK F1R                
1 28868U 05036A   26062.56514727 -.00000087  00000+0  00000+0 0  9993
2 28868   4.0428  77.9026 0002836 298.2135 241.3667  1.00272025 45391
SYRACUSE 3A             
1 28885U 05041B   26062.73822153  .00000119  00000+0  00000+0 0  9997
2 28885   4.3732  77.1498 0003627 269.1955 127.0995  1.00271258 74698
ARIANE 5 R/B            
1 28886U 05041C   26061.40200275 -.00000186  00000+0  83175-3 0  9999
2 28886   7.7980 242.5677 7179748 292.7007   8.1117  2.24429294167053
INMARSAT 4-F2           
1 28899U 05044A   26062.71989259 -.00000272  00000+0  00000+0 0  9995
2 28899   4.9562  43.8039 0002627 317.4522 202.8795  1.00271397 74466
METEOSAT-9 (MSG-2)      
1 28912U 05049B   26062.59556743  .00000114  00000+0  00000+0 0  9994
2 28912   9.1231  55.1899 0001832 221.0140 145.2732  1.00276803  5940
ARIANE 5 R/B            
1 28913U 05049C   26062.79048181 -.00000014  00000+0  66575-3 0  9992
2 28913   4.6082 352.7324 7147878 260.9233  49.7187  2.24900211166020
ARIANE 5 DEB [SYLDA]    
1 28914U 05049D   26062.66004778 -.00000122  00000+0 -99577-4 0  9993
2 28914   4.6994  12.9672 7155145 217.7498 178.7273  2.23712525164949
EUTELSAT 174A           
1 28924U 05052A   26062.76352834 -.00000003  00000+0  00000+0 0  9993
2 28924   3.9517  77.8364 0006272 267.8762 264.6470  1.00273531 51278
ECHOSTAR 10             
1 28935U 06003A   26062.70728137 -.00000069  00000+0  00000+0 0  9991
2 28935   0.0613 289.7714 0002212  13.0785   3.0318  1.00271396 73406
